{
  "type": "FeatureCollection",
  "features": [
    {
      "type": "Feature",
      "properties": {
        "norad_id": 35052,
        "name": "IRIDIUM 33 DEB",
        "group": "iridium-33-debris",
        "lat": -72.87408823726504,
        "lon": 5.815735236352305,
        "alt_km": 778.2940813384894,
        "timestamp": "2025-12-18T21:31:51.389636+00:00",
        "meta_object_name": "IRIDIUM 33 DEB",
        "meta_object_id": "1997-051NY",
        "meta_epoch": "2025-12-17T12:28:55.141824",
        "meta_mean_motion": 14.38497693,
        "meta_eccentricity": 0.00135167,
        "meta_inclination": 86.3305,
        "meta_ra_of_asc_node": 18.4267,
        "meta_arg_of_pericenter": 71.7027,
        "meta_mean_anomaly": 288.5641,
        "meta_ephemeris_type": 0,
        "meta_classification_type": "U",
        "meta_norad_cat_id": 35052,
        "meta_element_set_no": 999,
        "meta_rev_at_epoch": 87344,
        "meta_bstar": 0.00015333299,
        "meta_mean_motion_dot": 4.89e-06,
        "meta_mean_motion_ddot": 0,
        "tle_line1": "1 35052U 97051NY  25351.52008266  .00000489  00000+0  15333-3 0  9990",
        "tle_line2": "2 35052  86.3305  18.4267 0013516  71.7027 288.5641 14.38497693873444"
      },
      "geometry": {
        "type": "Point",
        "coordinates": [
          5.815735236352305,
          -72.87408823726504
        ]
      }
    },
    {
      "type": "Feature",
      "properties": {
        "norad_id": 35080,
        "name": "IRIDIUM 33 DEB",
        "group": "iridium-33-debris",
        "lat": 81.63121879390124,
        "lon": 76.22724926343803,
        "alt_km": 590.4483893486122,
        "timestamp": "2025-12-18T21:31:51.389647+00:00",
        "meta_object_name": "IRIDIUM 33 DEB",
        "meta_object_id": "1997-051PF",
        "meta_epoch": "2025-12-18T03:23:24.146880",
        "meta_mean_motion": 14.86677216,
        "meta_eccentricity": 0.00593996,
        "meta_inclination": 86.2085,
        "meta_ra_of_asc_node": 49.7944,
        "meta_arg_of_pericenter": 161.1545,
        "meta_mean_anomaly": 199.1899,
        "meta_ephemeris_type": 0,
        "meta_classification_type": "U",
        "meta_norad_cat_id": 35080,
        "meta_element_set_no": 999,
        "meta_rev_at_epoch": 69768,
        "meta_bstar": 0.004837816,
        "meta_mean_motion_dot": 0.0004462,
        "meta_mean_motion_ddot": 0,
        "tle_line1": "1 35080U 97051PF  25352.14125170  .00044620  00000+0  48378-2 0  9993",
        "tle_line2": "2 35080  86.2085  49.7944 0059399 161.1545 199.1899 14.86677216697682"
      },
      "geometry": {
        "type": "Point",
        "coordinates": [
          76.22724926343803,
          81.63121879390124
        ]
      }
    },
    {
      "type": "Feature",
      "properties": {
        "norad_id": 35297,
        "name": "IRIDIUM 33 DEB",
        "group": "iridium-33-debris",
        "lat": -18.641890731686598,
        "lon": 58.91043024422207,
        "alt_km": 756.314600480393,
        "timestamp": "2025-12-18T21:31:51.389657+00:00",
        "meta_object_name": "IRIDIUM 33 DEB",
        "meta_object_id": "1997-051PM",
        "meta_epoch": "2025-12-16T11:27:21.167712",
        "meta_mean_motion": 14.45174956,
        "meta_eccentricity": 0.00178431,
        "meta_inclination": 86.3863,
        "meta_ra_of_asc_node": 61.1645,
        "meta_arg_of_pericenter": 129.6186,
        "meta_mean_anomaly": 230.6595,
        "meta_ephemeris_type": 0,
        "meta_classification_type": "U",
        "meta_norad_cat_id": 35297,
        "meta_element_set_no": 999,
        "meta_rev_at_epoch": 70480,
        "meta_bstar": 0.00045011402,
        "meta_mean_motion_dot": 1.598e-05,
        "meta_mean_motion_ddot": 0,
        "tle_line1": "1 35297U 97051PM  25350.47732833  .00001598  00000+0  45011-3 0  9996",
        "tle_line2": "2 35297  86.3863  61.1645 0017843 129.6186 230.6595 14.45174956704806"
      },
      "geometry": {
        "type": "Point",
        "coordinates": [
          58.91043024422207,
          -18.641890731686598
        ]
      }
    },
    {
      "type": "Feature",
      "properties": {
        "norad_id": 35299,
        "name": "IRIDIUM 33 DEB",
        "group": "iridium-33-debris",
        "lat": -0.1467410357038949,
        "lon": -149.48434893356185,
        "alt_km": 763.7416955422668,
        "timestamp": "2025-12-18T21:31:51.389667+00:00",
        "meta_object_name": "IRIDIUM 33 DEB",
        "meta_object_id": "1997-051PP",
        "meta_epoch": "2025-12-18T02:30:13.094208",
        "meta_mean_motion": 14.40886995,
        "meta_eccentricity": 0.00588566,
        "meta_inclination": 86.2881,
        "meta_ra_of_asc_node": 30.8512,
        "meta_arg_of_pericenter": 85.3219,
        "meta_mean_anomaly": 304.2144,
        "meta_ephemeris_type": 0,
        "meta_classification_type": "U",
        "meta_norad_cat_id": 35299,
        "meta_element_set_no": 999,
        "meta_rev_at_epoch": 86408,
        "meta_bstar": 0.00059608635,
        "meta_mean_motion_dot": 1.971e-05,
        "meta_mean_motion_ddot": 0,
        "tle_line1": "1 35299U 97051PP  25352.10431822  .00001971  00000+0  59609-3 0  9997",
        "tle_line2": "2 35299  86.2881  30.8512 0058856  85.3219 304.2144 14.40886995864080"
      },
      "geometry": {
        "type": "Point",
        "coordinates": [
          -149.48434893356185,
          -0.1467410357038949
        ]
      }
    },
    {
      "type": "Feature",
      "properties": {
        "norad_id": 35480,
        "name": "IRIDIUM 33 DEB",
        "group": "iridium-33-debris",
        "lat": 63.18564559753693,
        "lon": -164.9972955833081,
        "alt_km": 710.5561092864318,
        "timestamp": "2025-12-18T21:31:51.389677+00:00",
        "meta_object_name": "IRIDIUM 33 DEB",
        "meta_object_id": "1997-051QA",
        "meta_epoch": "2025-12-15T08:30:57.118464",
        "meta_mean_motion": 14.49774703,
        "meta_eccentricity": 0.00160032,
        "meta_inclination": 86.3571,
        "meta_ra_of_asc_node": 23.7786,
        "meta_arg_of_pericenter": 97.0457,
        "meta_mean_anomaly": 263.2568,
        "meta_ephemeris_type": 0,
        "meta_classification_type": "U",
        "meta_norad_cat_id": 35480,
        "meta_element_set_no": 999,
        "meta_rev_at_epoch": 87069,
        "meta_bstar": 0.00045738518,
        "meta_mean_motion_dot": 1.785e-05,
        "meta_mean_motion_ddot": 0,
        "tle_line1": "1 35480U 97051QA  25349.35482776  .00001785  00000+0  45739-3 0  9998",
        "tle_line2": "2 35480  86.3571  23.7786 0016003  97.0457 263.2568 14.49774703870695"
      },
      "geometry": {
        "type": "Point",
        "coordinates": [
          -164.9972955833081,
          63.18564559753693
        ]
      }
    },
    {
      "type": "Feature",
      "properties": {
        "norad_id": 35484,
        "name": "IRIDIUM 33 DEB",
        "group": "iridium-33-debris",
        "lat": -68.77243739522085,
        "lon": -19.564010414043754,
        "alt_km": 592.4921276937821,
        "timestamp": "2025-12-18T21:31:51.389689+00:00",
        "meta_object_name": "IRIDIUM 33 DEB",
        "meta_object_id": "1997-051QE",
        "meta_epoch": "2025-12-13T07:15:48.307680",
        "meta_mean_motion": 14.98714194,
        "meta_eccentricity": 0.00237352,
        "meta_inclination": 86.3615,
        "meta_ra_of_asc_node": 352.4822,
        "meta_arg_of_pericenter": 123.3819,
        "meta_mean_anomaly": 236.9688,
        "meta_ephemeris_type": 0,
        "meta_classification_type": "U",
        "meta_norad_cat_id": 35484,
        "meta_element_set_no": 999,
        "meta_rev_at_epoch": 62024,
        "meta_bstar": 0.0048114888,
        "meta_mean_motion_dot": 0.00058609,
        "meta_mean_motion_ddot": 0,
        "tle_line1": "1 35484U 97051QE  25347.30264245  .00058609  00000+0  48115-2 0  9991",
        "tle_line2": "2 35484  86.3615 352.4822 0023735 123.3819 236.9688 14.98714194620242"
      },
      "geometry": {
        "type": "Point",
        "coordinates": [
          -19.564010414043754,
          -68.77243739522085
        ]
      }
    },
    {
      "type": "Feature",
      "properties": {
        "norad_id": 35488,
        "name": "IRIDIUM 33 DEB",
        "group": "iridium-33-debris",
        "lat": 49.16750462042617,
        "lon": -57.694140697522215,
        "alt_km": 596.620828643484,
        "timestamp": "2025-12-18T21:31:51.389699+00:00",
        "meta_object_name": "IRIDIUM 33 DEB",
        "meta_object_id": "1997-051QJ",
        "meta_epoch": "2025-12-17T14:32:45.548736",
        "meta_mean_motion": 14.83180169,
        "meta_eccentricity": 0.00292353,
        "meta_inclination": 86.3235,
        "meta_ra_of_asc_node": 298.6342,
        "meta_arg_of_pericenter": 27.0336,
        "meta_mean_anomaly": 333.2402,
        "meta_ephemeris_type": 0,
        "meta_classification_type": "U",
        "meta_norad_cat_id": 35488,
        "meta_element_set_no": 999,
        "meta_rev_at_epoch": 88338,
        "meta_bstar": 0.001310248,
        "meta_mean_motion_dot": 0.00010803,
        "meta_mean_motion_ddot": 0,
        "tle_line1": "1 35488U 97051QJ  25351.60608274  .00010803  00000+0  13102-2 0  9999",
        "tle_line2": "2 35488  86.3235 298.6342 0029235  27.0336 333.2402 14.83180169883381"
      },
      "geometry": {
        "type": "Point",
        "coordinates": [
          -57.694140697522215,
          49.16750462042617
        ]
      }
    }
  ]
}